[{"OBJECT_NAME":"ONEWEB-0659","OBJECT_ID":"2022-166AN","EPOCH":"2025-12-06T14:17:55.567392","MEAN_MOTION":13.21825217,"ECCENTRICITY":0.00017562,"INCLINATION":87.921,"RA_OF_ASC_NODE":282.4076,"ARG_OF_PERICENTER":75.3893,"MEAN_ANOMALY":284.7436,"EPHEMERIS_TYPE":0,"CLASSIFICATION_TYPE":"U","NORAD_CAT_ID":54678,"ELEMENT_SET_NO":999,"REV_AT_EPOCH":14608,"BSTAR":-5.464021e-6,"MEAN_MOTION_DOT":1.1e-7,"MEAN_MOTION_DDOT":0},{"OBJECT_NAME":"ONEWEB-0685","OBJECT_ID":"2022-166AP","EPOCH":"2025-12-06T14:18:39.633984","MEAN_MOTION":13.21834281,"ECCENTRICITY":0.00017175,"INCLINATION":87.921,"RA_OF_ASC_NODE":282.4034,"ARG_OF_PERICENTER":89.7944,"MEAN_ANOMALY":270.3387,"EPHEMERIS_TYPE":0,"CLASSIFICATION_TYPE":"U","NORAD_CAT_ID":54679,"ELEMENT_SET_NO":999,"REV_AT_EPOCH":14597,"BSTAR":-2.973908e-5,"MEAN_MOTION_DOT":1.0e-8,"MEAN_MOTION_DDOT":0},{"OBJECT_NAME":"ONEWEB-0712","OBJECT_ID":"2022-166AQ","EPOCH":"2025-12-06T06:08:15.314784","MEAN_MOTION":13.16594857,"ECCENTRICITY":0.00022675,"INCLINATION":87.9044,"RA_OF_ASC_NODE":267.1878,"ARG_OF_PERICENTER":80.1165,"MEAN_ANOMALY":280.0222,"EPHEMERIS_TYPE":0,"CLASSIFICATION_TYPE":"U","NORAD_CAT_ID":54680,"ELEMENT_SET_NO":999,"REV_AT_EPOCH":14667,"BSTAR":0.00046731733,"MEAN_MOTION_DOT":1.92e-6,"MEAN_MOTION_DDOT":0},{"OBJECT_NAME":"ONEWEB-0714","OBJECT_ID":"2022-166AR","EPOCH":"2025-12-06T14:27:24.322176","MEAN_MOTION":13.2182817,"ECCENTRICITY":0.00018828,"INCLINATION":87.9211,"RA_OF_ASC_NODE":282.3961,"ARG_OF_PERICENTER":83.224,"MEAN_ANOMALY":276.9108,"EPHEMERIS_TYPE":0,"CLASSIFICATION_TYPE":"U","NORAD_CAT_ID":54681,"ELEMENT_SET_NO":999,"REV_AT_EPOCH":14609,"BSTAR":-0.00019683008,"MEAN_MOTION_DOT":-6.8e-7,"MEAN_MOTION_DDOT":0},{"OBJECT_NAME":"ONEWEB-0532","OBJECT_ID":"2023-004A","EPOCH":"2025-12-06T14:39:58.341024","MEAN_MOTION":13.17649518,"ECCENTRICITY":0.00014279,"INCLINATION":87.9127,"RA_OF_ASC_NODE":44.152,"ARG_OF_PERICENTER":111.2175,"MEAN_ANOMALY":248.9109,"EPHEMERIS_TYPE":0,"CLASSIFICATION_TYPE":"U","NORAD_CAT_ID":55140,"ELEMENT_SET_NO":999,"REV_AT_EPOCH":14222,"BSTAR":0.00029227544,"MEAN_MOTION_DOT":1.26e-6,"MEAN_MOTION_DDOT":0},{"OBJECT_NAME":"ONEWEB-0533","OBJECT_ID":"2023-004B","EPOCH":"2025-12-06T13:51:28.153152","MEAN_MOTION":13.12444602,"ECCENTRICITY":0.00018769,"INCLINATION":87.8949,"RA_OF_ASC_NODE":28.9271,"ARG_OF_PERICENTER":103.4737,"MEAN_ANOMALY":256.66,"EPHEMERIS_TYPE":0,"CLASSIFICATION_TYPE":"U","NORAD_CAT_ID":55141,"ELEMENT_SET_NO":999,"REV_AT_EPOCH":14279,"BSTAR":0.00068953529,"MEAN_MOTION_DOT":2.61e-6,"MEAN_MOTION_DDOT":0},{"OBJECT_NAME":"ONEWEB-0541","OBJECT_ID":"2023-004C","EPOCH":"2025-12-06T14:37:18.806016","MEAN_MOTION":13.11416904,"ECCENTRICITY":0.00015224,"INCLINATION":87.8865,"RA_OF_ASC_NODE":59.397,"ARG_OF_PERICENTER":101.5914,"MEAN_ANOMALY":258.5385,"EPHEMERIS_TYPE":0,"CLASSIFICATION_TYPE":"U","NORAD_CAT_ID":55142,"ELEMENT_SET_NO":999,"REV_AT_EPOCH":14070,"BSTAR":0.0010456768,"MEAN_MOTION_DOT":3.83e-6,"MEAN_MOTION_DDOT":0},{"OBJECT_NAME":"ONEWEB-0543","OBJECT_ID":"2023-004D","EPOCH":"2025-12-06T14:08:32.652384","MEAN_MOTION":13.18685112,"ECCENTRICITY":0.00020678,"INCLINATION":87.9167,"RA_OF_ASC_NODE":13.7488,"ARG_OF_PERICENTER":92.9714,"MEAN_ANOMALY":267.1655,"EPHEMERIS_TYPE":0,"CLASSIFICATION_TYPE":"U","NORAD_CAT_ID":55143,"ELEMENT_SET_NO":999,"REV_AT_EPOCH":14431,"BSTAR":0.00018621541,"MEAN_MOTION_DOT":8.6e-7,"MEAN_MOTION_DDOT":0},{"OBJECT_NAME":"ONEWEB-0544","OBJECT_ID":"2023-004E","EPOCH":"2025-12-06T08:31:15.048192","MEAN_MOTION":13.18687553,"ECCENTRICITY":0.00018274,"INCLINATION":87.9171,"RA_OF_ASC_NODE":13.7859,"ARG_OF_PERICENTER":87.6428,"MEAN_ANOMALY":272.4913,"EPHEMERIS_TYPE":0,"CLASSIFICATION_TYPE":"U","NORAD_CAT_ID":55144,"ELEMENT_SET_NO":999,"REV_AT_EPOCH":14428,"BSTAR":0.00021276006,"MEAN_MOTION_DOT":9.7e-7,"MEAN_MOTION_DDOT":0},{"OBJECT_NAME":"ONEWEB-0560","OBJECT_ID":"2023-004F","EPOCH":"2025-12-06T13:49:32.617344","MEAN_MOTION":13.18685411,"ECCENTRICITY":0.00018799,"INCLINATION":87.9175,"RA_OF_ASC_NODE":13.7282,"ARG_OF_PERICENTER":88.6452,"MEAN_ANOMALY":271.4896,"EPHEMERIS_TYPE":0,"CLASSIFICATION_TYPE":"U","NORAD_CAT_ID":55145,"ELEMENT_SET_NO":999,"REV_AT_EPOCH":14432,"BSTAR":0.00019390011,"MEAN_MOTION_DOT":8.9e-7,"MEAN_MOTION_DDOT":0},{"OBJECT_NAME":"ONEWEB-0565","OBJECT_ID":"2023-004G","EPOCH":"2025-12-06T13:40:02.455968","MEAN_MOTION":13.18685215,"ECCENTRICITY":0.00014584,"INCLINATION":87.9165,"RA_OF_ASC_NODE":13.7765,"ARG_OF_PERICENTER":80.861,"MEAN_ANOMALY":279.2687,"EPHEMERIS_TYPE":0,"CLASSIFICATION_TYPE":"U","NORAD_CAT_ID":55146,"ELEMENT_SET_NO":999,"REV_AT_EPOCH":14431,"BSTAR":0.00012148422,"MEAN_MOTION_DOT":6.1e-7,"MEAN_MOTION_DDOT":0},{"OBJECT_NAME":"ONEWEB-0567","OBJECT_ID":"2023-004H","EPOCH":"2025-12-06T13:30:32.435424","MEAN_MOTION":13.18685789,"ECCENTRICITY":0.00016775,"INCLINATION":87.9175,"RA_OF_ASC_NODE":13.7445,"ARG_OF_PERICENTER":80.5912,"MEAN_ANOMALY":279.541,"EPHEMERIS_TYPE":0,"CLASSIFICATION_TYPE":"U","NORAD_CAT_ID":55147,"ELEMENT_SET_NO":999,"REV_AT_EPOCH":14431,"BSTAR":6.718588e-5,"MEAN_MOTION_DOT":3.9e-7,"MEAN_MOTION_DDOT":0},{"OBJECT_NAME":"ONEWEB-0569","OBJECT_ID":"2023-004J","EPOCH":"2025-12-06T14:00:16.844256","MEAN_MOTION":13.13470124,"ECCENTRICITY":0.00020935,"INCLINATION":87.8991,"RA_OF_ASC_NODE":358.4897,"ARG_OF_PERICENTER":65.3981,"MEAN_ANOMALY":294.7366,"EPHEMERIS_TYPE":0,"CLASSIFICATION_TYPE":"U","NORAD_CAT_ID":55148,"ELEMENT_SET_NO":999,"REV_AT_EPOCH":14489,"BSTAR":0.0012083953,"MEAN_MOTION_DOT":4.54e-6,"MEAN_MOTION_DDOT":0},{"OBJECT_NAME":"ONEWEB-0570","OBJECT_ID":"2023-004K","EPOCH":"2025-12-06T15:05:31.855488","MEAN_MOTION":13.18687785,"ECCENTRICITY":0.0001275,"INCLINATION":87.9174,"RA_OF_ASC_NODE":13.7308,"ARG_OF_PERICENTER":101.5241,"MEAN_ANOMALY":258.6035,"EPHEMERIS_TYPE":0,"CLASSIFICATION_TYPE":"U","NORAD_CAT_ID":55149,"ELEMENT_SET_NO":999,"REV_AT_EPOCH":14431,"BSTAR":-0.00012211447,"MEAN_MOTION_DOT":-3.5e-7,"MEAN_MOTION_DDOT":0},{"OBJECT_NAME":"ONEWEB-0571","OBJECT_ID":"2023-004L","EPOCH":"2025-12-06T14:56:01.933440","MEAN_MOTION":13.18687839,"ECCENTRICITY":0.00015781,"INCLINATION":87.9168,"RA_OF_ASC_NODE":13.7318,"ARG_OF_PERICENTER":51.791,"MEAN_ANOMALY":308.3364,"EPHEMERIS_TYPE":0,"CLASSIFICATION_TYPE":"U","NORAD_CAT_ID":55150,"ELEMENT_SET_NO":999,"REV_AT_EPOCH":14432,"BSTAR":9.860975e-6,"MEAN_MOTION_DOT":1.7e-7,"MEAN_MOTION_DDOT":0},{"OBJECT_NAME":"ONEWEB-0572","OBJECT_ID":"2023-004M","EPOCH":"2025-12-06T13:34:21.785088","MEAN_MOTION":13.17649605,"ECCENTRICITY":0.00015608,"INCLINATION":87.9126,"RA_OF_ASC_NODE":44.171,"ARG_OF_PERICENTER":96.0054,"MEAN_ANOMALY":264.1255,"EPHEMERIS_TYPE":0,"CLASSIFICATION_TYPE":"U","NORAD_CAT_ID":55151,"ELEMENT_SET_NO":999,"REV_AT_EPOCH":14211,"BSTAR":8.8469302e-5,"MEAN_MOTION_DOT":4.7e-7,"MEAN_MOTION_DDOT":0},{"OBJECT_NAME":"ONEWEB-0573","OBJECT_ID":"2023-004N","EPOCH":"2025-12-06T14:46:32.327616","MEAN_MOTION":13.18684846,"ECCENTRICITY":0.00010949,"INCLINATION":87.9164,"RA_OF_ASC_NODE":13.7388,"ARG_OF_PERICENTER":73.7334,"MEAN_ANOMALY":286.3919,"EPHEMERIS_TYPE":0,"CLASSIFICATION_TYPE":"U","NORAD_CAT_ID":55152,"ELEMENT_SET_NO":999,"REV_AT_EPOCH":14431,"BSTAR":0.00012131841,"MEAN_MOTION_DOT":6.1e-7,"MEAN_MOTION_DDOT":0}]
