ONEWEB-0659             
1 54678U 22166AN  25340.59578203  .00000011  00000+0 -54640-5 0  9996
2 54678  87.9210 282.4076 0001756  75.3893 284.7436 13.21825217146087
ONEWEB-0685             
1 54679U 22166AP  25340.59629206  .00000001  00000+0 -29739-4 0  9996
2 54679  87.9210 282.4034 0001717  89.7944 270.3387 13.21834281145979
ONEWEB-0712             
1 54680U 22166AQ  25340.25573281  .00000192  00000+0  46732-3 0  9993
2 54680  87.9044 267.1878 0002267  80.1165 280.0222 13.16594857146673
ONEWEB-0714             
1 54681U 22166AR  25340.60236484 -.00000068  00000+0 -19683-3 0  9993
2 54681  87.9211 282.3961 0001882  83.2240 276.9108 13.21828170146099
ONEWEB-0532             
1 55140U 23004A   25340.61109191  .00000126  00000+0  29228-3 0  9990
2 55140  87.9127  44.1520 0001427 111.2175 248.9109 13.17649518142228
ONEWEB-0533             
1 55141U 23004B   25340.57740918  .00000261  00000+0  68954-3 0  9993
2 55141  87.8949  28.9271 0001876 103.4737 256.6600 13.12444602142794
ONEWEB-0541             
1 55142U 23004C   25340.60924544  .00000383  00000+0  10457-2 0  9996
2 55142  87.8865  59.3970 0001522 101.5914 258.5385 13.11416904140703
ONEWEB-0543             
1 55143U 23004D   25340.58926681  .00000086  00000+0  18622-3 0  9991
2 55143  87.9167  13.7488 0002067  92.9714 267.1655 13.18685112144317
ONEWEB-0544             
1 55144U 23004E   25340.35503528  .00000097  00000+0  21276-3 0  9999
2 55144  87.9171  13.7859 0001827  87.6428 272.4913 13.18687553144284
ONEWEB-0560             
1 55145U 23004F   25340.57607196  .00000089  00000+0  19390-3 0  9995
2 55145  87.9175  13.7282 0001879  88.6452 271.4896 13.18685411144329
ONEWEB-0565             
1 55146U 23004G   25340.56947287  .00000061  00000+0  12148-3 0  9997
2 55146  87.9165  13.7765 0001458  80.8610 279.2687 13.18685215144313
ONEWEB-0567             
1 55147U 23004H   25340.56287541  .00000039  00000+0  67186-4 0  9996
2 55147  87.9175  13.7445 0001677  80.5912 279.5410 13.18685789144318
ONEWEB-0569             
1 55148U 23004J   25340.58352829  .00000454  00000+0  12084-2 0  9997
2 55148  87.8991 358.4897 0002093  65.3981 294.7366 13.13470124144896
ONEWEB-0570             
1 55149U 23004K   25340.62884092 -.00000035  00000+0 -12211-3 0  9995
2 55149  87.9174  13.7308 0001275 101.5241 258.6035 13.18687785144319
ONEWEB-0571             
1 55150U 23004L   25340.62224460  .00000017  00000+0  98610-5 0  9991
2 55150  87.9168  13.7318 0001578  51.7910 308.3364 13.18687839144329
ONEWEB-0572             
1 55151U 23004M   25340.56552992  .00000047  00000+0  88469-4 0  9992
2 55151  87.9126  44.1710 0001560  96.0054 264.1255 13.17649605142111
ONEWEB-0573             
1 55152U 23004N   25340.61565194  .00000061  00000+0  12132-3 0  9996
2 55152  87.9164  13.7388 0001094  73.7334 286.3919 13.18684846144316
